[{"OBJECT_NAME":"STARLINK-5386","OBJECT_ID":"2022-177Q","EPOCH":"2026-03-09T04:49:24.850848","MEAN_MOTION":15.0255267,"ECCENTRICITY":0.00014399,"INCLINATION":43.0038,"RA_OF_ASC_NODE":135.8251,"ARG_OF_PERICENTER":275.1859,"MEAN_ANOMALY":84.8819,"EPHEMERIS_TYPE":0,"CLASSIFICATION_TYPE":"U","NORAD_CAT_ID":54834,"ELEMENT_SET_NO":999,"REV_AT_EPOCH":17689,"BSTAR":0.00017747654,"MEAN_MOTION_DOT":2.196e-5,"MEAN_MOTION_DDOT":0},{"OBJECT_NAME":"VANGUARD 2","OBJECT_ID":"1959-001A","EPOCH":"2026-03-09T19:18:25.550496","MEAN_MOTION":11.90268048,"ECCENTRICITY":0.14456611,"INCLINATION":32.8708,"RA_OF_ASC_NODE":101.2249,"ARG_OF_PERICENTER":211.3482,"MEAN_ANOMALY":139.2428,"EPHEMERIS_TYPE":0,"CLASSIFICATION_TYPE":"U","NORAD_CAT_ID":11,"ELEMENT_SET_NO":999,"REV_AT_EPOCH":52362,"BSTAR":0.00053091218,"MEAN_MOTION_DOT":1.038e-5,"MEAN_MOTION_DDOT":0}]
